[{"OBJECT_NAME":"BEIJING 1","OBJECT_ID":"2005-043A","EPOCH":"2026-03-29T05:26:20.843232","MEAN_MOTION":14.63478272,"ECCENTRICITY":0.0014806,"INCLINATION":98.2761,"RA_OF_ASC_NODE":221.0527,"ARG_OF_PERICENTER":167.125,"MEAN_ANOMALY":193.0333,"EPHEMERIS_TYPE":0,"CLASSIFICATION_TYPE":"U","NORAD_CAT_ID":28890,"ELEMENT_SET_NO":999,"REV_AT_EPOCH":8895,"BSTAR":9.2096e-5,"MEAN_MOTION_DOT":4.29e-6,"MEAN_MOTION_DDOT":0},{"OBJECT_NAME":"HUANJING 1A (HJ-1A)","OBJECT_ID":"2008-041A","EPOCH":"2026-03-29T04:36:53.672832","MEAN_MOTION":14.83785296,"ECCENTRICITY":0.0020338,"INCLINATION":97.6652,"RA_OF_ASC_NODE":77.1533,"ARG_OF_PERICENTER":44.4901,"MEAN_ANOMALY":315.7942,"EPHEMERIS_TYPE":0,"CLASSIFICATION_TYPE":"U","NORAD_CAT_ID":33320,"ELEMENT_SET_NO":999,"REV_AT_EPOCH":94654,"BSTAR":0.0002781,"MEAN_MOTION_DOT":2.26e-5,"MEAN_MOTION_DDOT":0},{"OBJECT_NAME":"HUANJING 1B (HJ-1B)","OBJECT_ID":"2008-041B","EPOCH":"2026-03-29T04:39:08.364384","MEAN_MOTION":14.83153059,"ECCENTRICITY":0.0038052,"INCLINATION":97.6498,"RA_OF_ASC_NODE":80.5625,"ARG_OF_PERICENTER":85.949,"MEAN_ANOMALY":274.6073,"EPHEMERIS_TYPE":0,"CLASSIFICATION_TYPE":"U","NORAD_CAT_ID":33321,"ELEMENT_SET_NO":999,"REV_AT_EPOCH":94655,"BSTAR":0.00019944,"MEAN_MOTION_DOT":1.595e-5,"MEAN_MOTION_DDOT":0},{"OBJECT_NAME":"YAOGAN-4","OBJECT_ID":"2008-061A","EPOCH":"2026-03-29T02:01:27.111648","MEAN_MOTION":14.83034078,"ECCENTRICITY":0.0013785,"INCLINATION":97.9263,"RA_OF_ASC_NODE":22.2164,"ARG_OF_PERICENTER":337.5029,"MEAN_ANOMALY":22.5578,"EPHEMERIS_TYPE":0,"CLASSIFICATION_TYPE":"U","NORAD_CAT_ID":33446,"ELEMENT_SET_NO":999,"REV_AT_EPOCH":93379,"BSTAR":0.00017917,"MEAN_MOTION_DOT":1.405e-5,"MEAN_MOTION_DDOT":0},{"OBJECT_NAME":"DEIMOS-1","OBJECT_ID":"2009-041A","EPOCH":"2026-03-29T03:33:22.065120","MEAN_MOTION":14.75145669,"ECCENTRICITY":0.0002752,"INCLINATION":97.7294,"RA_OF_ASC_NODE":248.8896,"ARG_OF_PERICENTER":88.262,"MEAN_ANOMALY":271.8905,"EPHEMERIS_TYPE":0,"CLASSIFICATION_TYPE":"U","NORAD_CAT_ID":35681,"ELEMENT_SET_NO":999,"REV_AT_EPOCH":89508,"BSTAR":0.00016071,"MEAN_MOTION_DOT":1.037e-5,"MEAN_MOTION_DDOT":0},{"OBJECT_NAME":"UK-DMC 2","OBJECT_ID":"2009-041C","EPOCH":"2026-03-29T03:52:53.436576","MEAN_MOTION":14.75893756,"ECCENTRICITY":0.0001415,"INCLINATION":97.8686,"RA_OF_ASC_NODE":225.1493,"ARG_OF_PERICENTER":99.7913,"MEAN_ANOMALY":260.3457,"EPHEMERIS_TYPE":0,"CLASSIFICATION_TYPE":"U","NORAD_CAT_ID":35683,"ELEMENT_SET_NO":999,"REV_AT_EPOCH":89476,"BSTAR":0.00016611,"MEAN_MOTION_DOT":1.091e-5,"MEAN_MOTION_DDOT":0},{"OBJECT_NAME":"DMC3-FM1","OBJECT_ID":"2015-032A","EPOCH":"2026-03-29T04:38:27.026304","MEAN_MOTION":14.85644771,"ECCENTRICITY":0.0004779,"INCLINATION":97.6587,"RA_OF_ASC_NODE":316.4561,"ARG_OF_PERICENTER":332.8229,"MEAN_ANOMALY":27.2736,"EPHEMERIS_TYPE":0,"CLASSIFICATION_TYPE":"U","NORAD_CAT_ID":40715,"ELEMENT_SET_NO":999,"REV_AT_EPOCH":57803,"BSTAR":0.00015141,"MEAN_MOTION_DOT":1.26e-5,"MEAN_MOTION_DDOT":0},{"OBJECT_NAME":"DMC3-FM2","OBJECT_ID":"2015-032B","EPOCH":"2026-03-29T05:10:32.533248","MEAN_MOTION":14.85646567,"ECCENTRICITY":0.0005488,"INCLINATION":97.664,"RA_OF_ASC_NODE":317.9965,"ARG_OF_PERICENTER":337.6195,"MEAN_ANOMALY":22.4781,"EPHEMERIS_TYPE":0,"CLASSIFICATION_TYPE":"U","NORAD_CAT_ID":40716,"ELEMENT_SET_NO":999,"REV_AT_EPOCH":57803,"BSTAR":8.692e-5,"MEAN_MOTION_DOT":7.01e-6,"MEAN_MOTION_DDOT":0},{"OBJECT_NAME":"DMC3-FM3","OBJECT_ID":"2015-032C","EPOCH":"2026-03-29T04:06:48.006144","MEAN_MOTION":14.85643702,"ECCENTRICITY":0.0004765,"INCLINATION":97.6693,"RA_OF_ASC_NODE":319.6549,"ARG_OF_PERICENTER":338.8665,"MEAN_ANOMALY":21.2353,"EPHEMERIS_TYPE":0,"CLASSIFICATION_TYPE":"U","NORAD_CAT_ID":40717,"ELEMENT_SET_NO":999,"REV_AT_EPOCH":57803,"BSTAR":3.1496e-5,"MEAN_MOTION_DOT":2.21e-6,"MEAN_MOTION_DDOT":0}]
